NORAD_CAT_ID,OBJECT_NAME,OBJECT_TYPE,EPOCH,MEAN_MOTION,ECCENTRICITY,INCLINATION,RA_OF_ASC_NODE,ARG_OF_PERICENTER,MEAN_ANOMALY,BSTAR,MEAN_MOTION_DOT,MEAN_MOTION_DDOT,TLE_LINE0,TLE_LINE1,TLE_LINE2,SEMIMAJOR_AXIS,PERIOD,APOGEE,PERIGEE,DECAYED
56458.0,STARLINK-6050,PAYLOAD,2023-05-16 16:00:00,15.90440794,0.0024966,70.0007,229.0627,159.6068,308.4068,-0.0029853,-0.0094118,0.00026598,0 STARLINK-6050,1 56458U 23064L   23136.66667824 -.00941180  26598-3 -29853-2 0  9990,2 56458  70.0007 229.0627 0024966 159.6068 308.4068 15.90440794  1300,6679.185,90.541,317.726,284.375,0.0
56458.0,STARLINK-6050,PAYLOAD,2023-05-16 22:00:00,15.89964512,0.0022707,70.0003,228.3383,159.9761,298.7917,-0.0032041,-0.00980759,0.00028571,0 STARLINK-6050,1 56458U 23064L   23136.91667824 -.00980759  28571-3 -32041-2 0  9999,2 56458  70.0003 228.3383 0022707 159.9761 298.7917 15.89964512  1335,6680.519,90.568,317.554,287.215,0.0
56458.0,STARLINK-6050,PAYLOAD,2023-05-17 22:00:00,15.88017716,0.0013343,70.0,225.4467,164.3787,253.0077,-0.0036601,-0.01000836,0.00029109,0 STARLINK-6050,1 56458U 23064L   23137.91667824 -.01000836  29109-3 -36601-2 0  9994,2 56458  70.0000 225.4467 0013343 164.3787 253.0077 15.88017716  1499,6685.978,90.679,316.764,298.922,0.0
56458.0,STARLINK-6050,PAYLOAD,2023-05-18 14:00:01,15.86702134,0.0007495,70.0,223.5234,174.2754,91.6176,-0.0037958,-0.00881549,0.0,0 STARLINK-6050,1 56458U 23064L   23138.58334491 -.00881549  00000-0 -37958-2 0  9998,2 56458  70.0000 223.5234 0007495 174.2754  91.6176 15.86702134  1607,6689.673,90.754,316.552,306.524,0.0
56458.0,STARLINK-6050,PAYLOAD,2023-05-18 22:00:00,15.86067407,0.0004998,69.9998,222.5631,189.8231,179.144,-0.0041092,-0.0091914,0.0,0 STARLINK-6050,1 56458U 23064L   23138.91667824 -.00919140  00000-0 -41092-2 0  9997,2 56458  69.9998 222.5631 0004998 189.8231 179.1440 15.86067407  1307,6691.458,90.791,316.667,309.978,0.0
56458.0,STARLINK-6050,PAYLOAD,2023-05-19 06:00:00,15.85430529,0.0003532,70.0,221.6041,215.7084,255.5467,-0.0042632,-0.00923068,0.0,0 STARLINK-6050,1 56458U 23064L   23139.25001157 -.00923068  00000-0 -42632-2 0  9991,2 56458  70.0000 221.6041 0003532 215.7084 255.5467 15.85430529  1718,6693.25,90.827,317.479,312.751,0.0
56458.0,STARLINK-6050,PAYLOAD,2023-05-19 22:00:01,15.84112472,0.0003424,69.9997,219.6886,264.0256,49.5516,-0.0044896,-0.00913224,0.0,0 STARLINK-6050,1 56458U 23064L   23139.91668981 -.00913224  00000-0 -44896-2 0  9995,2 56458  69.9997 219.6886 0003424 264.0256  49.5516 15.84112472  1306,6696.962,90.903,321.12,316.534,0.0
56458.0,STARLINK-6050,PAYLOAD,2023-05-20 06:00:00,15.83420808,0.0003603,69.9999,218.7325,270.4772,142.9918,-0.0041608,-0.00827125,0.0,0 STARLINK-6050,1 56458U 23064L   23140.25001157 -.00827125  00000-0 -41608-2 0  9992,2 56458  69.9999 218.7325 0003603 270.4772 142.9918 15.83420808  1868,6698.912,90.942,323.191,318.363,0.0
56458.0,STARLINK-6050,PAYLOAD,2023-05-20 14:00:01,15.82659604,0.0003605,69.9996,217.7773,278.5565,234.0852,0.0017475,0.00383861,0.0,0 STARLINK-6050,1 56458U 23064L   23140.58334491  .00383861  00000-0  17475-2 0  9995,2 56458  69.9996 217.7773 0003605 278.5565 234.0852 15.82659604  1926,6701.06,90.986,325.341,320.509,0.0
56458.0,STARLINK-6050,PAYLOAD,2023-05-20 16:00:00,15.82686804,0.0003621,69.9993,217.5386,280.6812,346.6315,0.0021316,0.00473771,0.0,0 STARLINK-6050,1 56458U 23064L   23140.66667824  .00473771  00000-0  21316-2 0  9992,2 56458  69.9993 217.5386 0003621 280.6812 346.6315 15.82686804  1306,6700.983,90.985,325.274,320.422,0.0
56458.0,STARLINK-6050,PAYLOAD,2023-05-21 04:51:40,15.81715432,0.0003835,69.9992,216.0033,271.241,167.2417,0.0001,0.00019925,0.0,0 STARLINK-6050,1 56458U 23064L   23141.20255206  .00019925  00000-0  10000-3 0  9996,2 56458  69.9992 216.0033 0003835 271.2410 167.2417 15.81715432  2013,6703.726,91.04,328.162,323.02,0.0
56458.0,STARLINK-6050,PAYLOAD,2023-05-21 06:00:00,15.81538147,0.0003894,69.9992,215.8676,269.5956,79.0025,-0.005367,-0.00961519,0.0,0 STARLINK-6050,1 56458U 23064L   23141.25001157 -.00961519  00000-0 -53670-2 0  9991,2 56458  69.9992 215.8676 0003894 269.5956  79.0025 15.81538147  2025,6704.227,91.051,328.703,323.482,0.0
56458.0,STARLINK-6050,PAYLOAD,2023-05-21 14:00:01,15.80822568,0.0003673,69.9991,214.9143,278.5038,166.9347,-0.0048842,-0.00856737,0.0,0 STARLINK-6050,1 56458U 23064L   23141.58334491 -.00856737  00000-0 -48842-2 0  9997,2 56458  69.9991 214.9143 0003673 278.5038 166.9347 15.80822568  2079,6706.25,91.092,330.578,325.652,0.0
56458.0,STARLINK-6050,PAYLOAD,2023-05-21 22:00:00,15.8018074,0.000348,69.9988,213.9621,273.3339,268.1442,-0.0052679,-0.00893181,0.0,0 STARLINK-6050,1 56458U 23064L   23141.91667824 -.00893181  00000-0 -52679-2 0  9990,2 56458  69.9988 213.9621 0003480 273.3339 268.1442 15.80180740  2135,6708.066,91.129,332.265,327.597,0.0
56458.0,STARLINK-6050,PAYLOAD,2023-05-22 14:00:01,15.7887497,0.0003489,69.9991,212.0608,275.892,95.3099,-0.0054579,-0.00873806,0.0,0 STARLINK-6050,1 56458U 23064L   23142.58334491 -.00873806  00000-0 -54579-2 0  9998,2 56458  69.9991 212.0608 0003489 275.8920  95.3099 15.78874970  1304,6711.764,91.204,335.971,331.287,0.0
56458.0,STARLINK-6050,PAYLOAD,2023-05-22 22:00:00,15.78210645,0.0003356,69.9988,211.1115,270.3809,194.5203,-0.0055748,-0.00866756,0.0,0 STARLINK-6050,1 56458U 23064L   23142.91667824 -.00866756  00000-0 -55748-2 0  9999,2 56458  69.9988 211.1115 0003356 270.3809 194.5203 15.78210645  1304,6713.647,91.243,337.766,333.259,0.0
56458.0,STARLINK-6050,PAYLOAD,2023-05-23 14:00:01,15.76921269,0.0003413,69.9984,209.2162,273.1438,16.7839,-0.0060098,-0.00880528,0.0,0 STARLINK-6050,1 56458U 23064L   23143.58334491 -.00880528  00000-0 -60098-2 0  9991,2 56458  69.9984 209.2162 0003413 273.1438  16.7839 15.76921269  2392,6717.307,91.317,341.464,336.879,0.0
56458.0,STARLINK-6050,PAYLOAD,2023-05-23 22:00:00,15.76251733,0.0003476,69.9981,208.2694,270.058,111.2224,-0.0060363,-0.00860581,0.0,0 STARLINK-6050,1 56458U 23064L   23143.91667824 -.00860581  00000-0 -60363-2 0  9999,2 56458  69.9981 208.2694 0003476 270.0580 111.2224 15.76251733  1302,6719.209,91.356,343.409,338.738,0.0
56458.0,STARLINK-6050,PAYLOAD,2023-05-24 06:00:00,15.75654725,0.0003408,69.9983,207.3238,269.8177,202.0068,-0.0068709,-0.00944509,0.0,0 STARLINK-6050,1 56458U 23064L   23144.25001157 -.00944509  00000-0 -68709-2 0  9993,2 56458  69.9983 207.3238 0003408 269.8177 202.0068 15.75654725  2506,6720.906,91.391,345.061,340.48,0.0
56458.0,STARLINK-6050,PAYLOAD,2023-05-24 22:00:00,15.74292823,0.0003529,69.9982,205.4353,270.3377,20.2831,-0.0065561,-0.00858062,0.0,0 STARLINK-6050,1 56458U 23064L   23144.91667824 -.00858062  00000-0 -65561-2 0  9996,2 56458  69.9982 205.4353 0003529 270.3377  20.2831 15.74292823  2600,6724.781,91.47,349.019,344.273,0.0
56458.0,STARLINK-6050,PAYLOAD,2023-05-25 12:00:00,15.73157717,0.0003809,69.9985,203.7861,274.2639,80.2176,-0.0069654,-0.00867181,0.0,0 STARLINK-6050,1 56458U 23064L   23145.50001157 -.00867181  00000-0 -69654-2 0  9992,2 56458  69.9985 203.7861 0003809 274.2639  80.2176 15.73157717  2691,6728.016,91.536,352.443,347.318,0.0
56458.0,STARLINK-6050,PAYLOAD,2023-05-25 14:00:01,15.72993847,0.00037,69.9985,203.5505,275.8308,190.4342,-0.0069701,-0.0086215,0.0,0 STARLINK-6050,1 56458U 23064L   23145.58334491 -.00862150  00000-0 -69701-2 0  9994,2 56458  69.9985 203.5505 0003700 275.8308 190.4342 15.72993847  1301,6728.483,91.545,352.838,347.858,0.0
56458.0,STARLINK-6050,PAYLOAD,2023-05-25 22:00:00,15.72338352,0.000357,69.9983,202.6094,268.6641,284.2509,-0.0071332,-0.00858264,0.0,0 STARLINK-6050,1 56458U 23064L   23145.91667824 -.00858264  00000-0 -71332-2 0  9994,2 56458  69.9983 202.6094 0003570 268.6641 284.2509 15.72338352  1308,6730.353,91.583,354.621,349.815,0.0
56458.0,STARLINK-6050,PAYLOAD,2023-05-26 06:00:00,15.71742453,0.0003715,69.9985,201.6693,266.9866,11.7815,-0.0081837,-0.00964536,0.0,0 STARLINK-6050,1 56458U 23064L   23146.25001157 -.00964536  00000-0 -81837-2 0  9994,2 56458  69.9985 201.6693 0003715 266.9866  11.7815 15.71742453  2815,6732.054,91.618,356.42,351.418,0.0
56458.0,STARLINK-6050,PAYLOAD,2023-05-26 14:00:01,15.71049486,0.0003685,69.9982,200.73,274.5913,89.2698,-0.0076907,-0.00874452,0.0,0 STARLINK-6050,1 56458U 23064L   23146.58334491 -.00874452  00000-0 -76907-2 0  9999,2 56458  69.9982 200.7300 0003685 274.5913  89.2698 15.71049486  1309,6734.033,91.658,358.38,353.417,0.0
56458.0,STARLINK-6050,PAYLOAD,2023-05-26 22:00:01,15.70218165,0.0003484,69.9984,199.7916,267.7672,180.5022,-0.0035342,-0.00410091,0.0,0 STARLINK-6050,1 56458U 23064L   23146.91668981 -.00410091  00000-0 -35342-2 0  9993,2 56458  69.9984 199.7916 0003484 267.7672 180.5022 15.70218165  2920,6736.41,91.707,360.622,355.928,0.0
56458.0,STARLINK-6050,PAYLOAD,2023-05-27 06:00:02,15.69961285,0.0003318,69.999,198.8543,267.2372,264.5303,-0.0005709,-0.00068407,0.0,0 STARLINK-6050,1 56458U 23064L   23147.25002315 -.00068407  00000-0 -57090-3 0  9999,2 56458  69.9990 198.8543 0003318 267.2372 264.5303 15.69961285  2977,6737.145,91.722,361.245,356.774,0.0
56458.0,STARLINK-6050,PAYLOAD,2023-05-27 22:00:00,15.69896202,0.0003225,69.9987,196.9798,272.233,66.1501,0.00044036,0.0005301,0.0,0 STARLINK-6050,1 56458U 23064L   23147.91667824  .00053010  00000-0  44036-3 0  9992,2 56458  69.9987 196.9798 0003225 272.2330  66.1501 15.69896202  3075,6737.331,91.726,361.369,357.023,0.0
56458.0,STARLINK-6050,PAYLOAD,2023-05-28 06:00:00,15.69980245,0.0003358,69.9988,196.0427,274.0023,147.6961,-0.00088626,-0.00105694,0.0,0 STARLINK-6050,1 56458U 23064L   23148.25001157 -.00105694  00000-0 -88626-3 0  9992,2 56458  69.9988 196.0427 0003358 274.0023 147.6961 15.69980245  1302,6737.091,91.721,361.218,356.693,0.0
56458.0,STARLINK-6050,PAYLOAD,2023-05-28 14:00:01,15.69915692,0.0003339,69.9985,195.1055,279.5566,225.512,0.0001691,0.00020162,0.0,0 STARLINK-6050,1 56458U 23064L   23148.58334491  .00020162  00000-0  16910-3 0  9999,2 56458  69.9985 195.1055 0003339 279.5566 225.5120 15.69915692  3182,6737.275,91.725,361.39,356.891,0.0
